OBJECT_NAME,OBJECT_ID,EPOCH,MEAN_MOTION,ECCENTRICITY,INCLINATION,RA_OF_ASC_NODE,ARG_OF_PERICENTER,MEAN_ANOMALY,EPHEMERIS_TYPE,CLASSIFICATION_TYPE,NORAD_CAT_ID,ELEMENT_SET_NO,REV_AT_EPOCH,BSTAR,MEAN_MOTION_DOT,MEAN_MOTION_DDOT
GEOSCAN 3 (RS92S3),2025-155T,2026-07-24T06:16:01.119648,15.36576212,.00080076,97.4554,175.6074,64.4663,295.7408,0,U,64893,999,8654,.67005279E-3,.23911E-3,0
INNOSAT 3 (RS92S0),2025-155U,2026-07-24T06:59:09.058848,15.46423353,.00075304,97.4496,177.7521,71.1757,289.0309,0,U,64894,999,8669,.11022281E-2,.54821E-3,0
KNACKSAT-2,1998-067XZ,2026-07-24T06:36:17.006976,15.63224662,.00073864,51.6276,107.4683,357.1091,2.9860,0,U,67683,999,2607,.77997712E-3,.73048E-3,0
