GEOSCAN 3 (RS92S3)      
1 64893U 25155T   26205.26112407  .00023911  00000+0  67005-3 0  9992
2 64893  97.4554 175.6074 0008007  64.4663 295.7408 15.36576212 86546
INNOSAT 3 (RS92S0)      
1 64894U 25155U   26205.29107707  .00054821  00000+0  11022-2 0  9994
2 64894  97.4496 177.7521 0007530  71.1757 289.0309 15.46423353 86691
KNACKSAT-2              
1 67683U 98067XZ  26205.27519684  .00073048  00000+0  77998-3 0  9991
2 67683  51.6276 107.4683 0007386 357.1091   2.9860 15.63224662 26075
